<gpx xmlns:ns3="http://www.garmin.com/xmlschemas/TrackPointExtension/v1" xmlns="http://www.topografix.com/GPX/1/1" xmlns:xsi="http://www.w3.org/2001/XMLSchema-instance" xmlns:ns2="http://www.garmin.com/xmlschemas/GpxExtensions/v3" creator="Garmin Connect" version="1.1" xsi:schemaLocation="http://www.topografix.com/GPX/1/1 http://www.topografix.com/GPX/11.xsd">
  <extensions>
<distance>3896.83</distance>
<average_hr>155.0</average_hr>
<average_speed>2.7260000705718994</average_speed>
<start_time>2026-09-13T13:51:03+00:00</start_time>
<end_time>2026-09-13T14:14:52.570000+00:00</end_time>
<moving_time>1408.249</moving_time>
<elapsed_time>1467.217</elapsed_time>
</extensions>
<metadata>
    <link href="connect.garmin.com">
      <text>Garmin Connect</text>
    </link>
    <time>2026-09-13T13:51:03.000Z</time>
  </metadata>
  <trk>
    <name>长距离跑</name>
    <type>running</type>
    <trkseg/>
  </trk>
</gpx>
