<gpx xmlns:ns3="http://www.garmin.com/xmlschemas/TrackPointExtension/v1" xmlns="http://www.topografix.com/GPX/1/1" xmlns:xsi="http://www.w3.org/2001/XMLSchema-instance" xmlns:ns2="http://www.garmin.com/xmlschemas/GpxExtensions/v3" creator="Garmin Connect" version="1.1" xsi:schemaLocation="http://www.topografix.com/GPX/1/1 http://www.topografix.com/GPX/11.xsd">
  <extensions>
<distance>4728.63</distance>
<average_hr>157.0</average_hr>
<average_speed>2.8780000209808345</average_speed>
<start_time>2026-09-10T23:34:18+00:00</start_time>
<end_time>2026-09-11T00:01:40.798000+00:00</end_time>
<moving_time>1616.701</moving_time>
<elapsed_time>1642.798</elapsed_time>
</extensions>
<metadata>
    <link href="connect.garmin.com">
      <text>Garmin Connect</text>
    </link>
    <time>2026-09-10T23:34:18.000Z</time>
  </metadata>
  <trk>
    <name>乳酸阈值</name>
    <type>running</type>
    <trkseg/>
  </trk>
</gpx>
