<gpx xmlns:ns3="http://www.garmin.com/xmlschemas/TrackPointExtension/v1" xmlns="http://www.topografix.com/GPX/1/1" xmlns:xsi="http://www.w3.org/2001/XMLSchema-instance" xmlns:ns2="http://www.garmin.com/xmlschemas/GpxExtensions/v3" creator="Garmin Connect" version="1.1" xsi:schemaLocation="http://www.topografix.com/GPX/1/1 http://www.topografix.com/GPX/11.xsd">
  <extensions>
<distance>4681.13</distance>
<average_hr>161.0</average_hr>
<average_speed>2.9230000972747803</average_speed>
<start_time>2026-09-14T23:15:58+00:00</start_time>
<end_time>2026-09-14T23:42:39.538000+00:00</end_time>
<moving_time>1563.46</moving_time>
<elapsed_time>1653.799</elapsed_time>
</extensions>
<metadata>
    <link href="connect.garmin.com">
      <text>Garmin Connect</text>
    </link>
    <time>2026-09-14T23:15:58.000Z</time>
  </metadata>
  <trk>
    <name>乳酸阈值</name>
    <type>running</type>
    <trkseg/>
  </trk>
</gpx>
