<gpx xmlns:ns3="http://www.garmin.com/xmlschemas/TrackPointExtension/v1" xmlns="http://www.topografix.com/GPX/1/1" xmlns:xsi="http://www.w3.org/2001/XMLSchema-instance" xmlns:ns2="http://www.garmin.com/xmlschemas/GpxExtensions/v3" creator="Garmin Connect" version="1.1" xsi:schemaLocation="http://www.topografix.com/GPX/1/1 http://www.topografix.com/GPX/11.xsd">
  <extensions>
<distance>4963.67</distance>
<average_hr>151.0</average_hr>
<average_speed>2.7720000743865967</average_speed>
<start_time>2026-09-15T23:19:13+00:00</start_time>
<end_time>2026-09-15T23:49:03.831000+00:00</end_time>
<moving_time>1750.992</moving_time>
<elapsed_time>1790.831</elapsed_time>
</extensions>
<metadata>
    <link href="connect.garmin.com">
      <text>Garmin Connect</text>
    </link>
    <time>2026-09-15T23:19:13.000Z</time>
  </metadata>
  <trk>
    <name>基础训练</name>
    <type>running</type>
    <trkseg/>
  </trk>
</gpx>
